YAOGAN-30 06C           
1 44451U 19045C   26068.85043463  .00004352  00000+0  32596-3 0  9993
2 44451  34.9925 214.7382 0001081 261.6749  98.3837 15.02172666361604
STARLINK-35094          
1 65395U 25191S   26068.66196417  .00002240  00000+0  15936-3 0  9992
2 65395  97.6026 301.4709 0002332  96.4121 263.7371 15.05657783 30275
